{"type": "FeatureCollection", "features": [ {"type": "Feature", "properties": {"norad_id": 43108, "name": "BEIDOU-3 M8 (C28)", "group": "gnss", "lat": 19.226055141302187, "lon": -36.44570216021761, "alt_km": 21530.45507934114, "timestamp": "2025-12-02T06:27:53.257114+00:00", "meta": {"OBJECT_NAME": "BEIDOU-3 M8 (C28)", "OBJECT_ID": "2018-003B", "EPOCH": "2025-12-01T03:50:13.118784", "MEAN_MOTION": 1.86230755, "ECCENTRICITY": 0.0004823, "INCLINATION": 54.4999, "RA_OF_ASC_NODE": 309.2007, "ARG_OF_PERICENTER": 273.5581, "MEAN_ANOMALY": 86.3811, "EPHEMERIS_TYPE": 0, "CLASSIFICATION_TYPE": "U", "NORAD_CAT_ID": 43108, "ELEMENT_SET_NO": 999, "REV_AT_EPOCH": 5367, "BSTAR": 0, "MEAN_MOTION_DOT": -5.7e-07, "MEAN_MOTION_DDOT": 0}, "tle": {"line1": "1 43108U 18003B   25335.15987406 -.00000057  00000+0  00000+0 0  9997", "line2": "2 43108  54.4999 309.2007 0004823 273.5581  86.3811  1.86230755 53672"}}, "geometry": {"type": "Point", "coordinates": [-36.44570216021761, 19.226055141302187]}}, {"type": "Feature", "properties": {"norad_id": 43207, "name": "BEIDOU-3 M4 (C22)", "group": "gnss", "lat": 56.42692661640593, "lon": 155.46014037434028, "alt_km": 21518.133693687058, "timestamp": "2025-12-02T06:27:53.257128+00:00", "meta": {"OBJECT_NAME": "BEIDOU-3 M4 (C22)", "OBJECT_ID": "2018-018A", "EPOCH": "2025-12-01T14:26:30.979680", "MEAN_MOTION": 1.86230736, "ECCENTRICITY": 0.00040579, "INCLINATION": 56.4763, "RA_OF_ASC_NODE": 69.6735, "ARG_OF_PERICENTER": 15.5905, "MEAN_ANOMALY": 344.4245, "EPHEMERIS_TYPE": 0, "CLASSIFICATION_TYPE": "U", "NORAD_CAT_ID": 43207, "ELEMENT_SET_NO": 999, "REV_AT_EPOCH": 5306, "BSTAR": 0, "MEAN_MOTION_DOT": -4.1e-07, "MEAN_MOTION_DDOT": 0}, "tle": {"line1": "1 43207U 18018A   25335.60174745 -.00000041  00000+0  00000+0 0  9990", "line2": "2 43207  56.4763  69.6735 0004057  15.5905 344.4245  1.86230736 53062"}}, "geometry": {"type": "Point", "coordinates": [155.46014037434028, 56.42692661640593]}}, {"type": "Feature", "properties": {"norad_id": 43208, "name": "BEIDOU-3 M3 (C21)", "group": "gnss", "lat": 34.68139383763774, "lon": 96.91499444783689, "alt_km": 21522.4051874638, "timestamp": "2025-12-02T06:27:53.257141+00:00", "meta": {"OBJECT_NAME": "BEIDOU-3 M3 (C21)", "OBJECT_ID": "2018-018B", "EPOCH": "2025-12-01T16:02:18.991968", "MEAN_MOTION": 1.8623092, "ECCENTRICITY": 0.0006202, "INCLINATION": 56.4757, "RA_OF_ASC_NODE": 69.6754, "ARG_OF_PERICENTER": 317.7511, "MEAN_ANOMALY": 42.2037, "EPHEMERIS_TYPE": 0, "CLASSIFICATION_TYPE": "U", "NORAD_CAT_ID": 43208, "ELEMENT_SET_NO": 999, "REV_AT_EPOCH": 5306, "BSTAR": 0, "MEAN_MOTION_DOT": -4.2e-07, "MEAN_MOTION_DDOT": 0}, "tle": {"line1": "1 43208U 18018B   25335.66827537 -.00000042  00000+0  00000+0 0  9992", "line2": "2 43208  56.4757  69.6754 0006202 317.7511  42.2037  1.86230920 53068"}}, "geometry": {"type": "Point", "coordinates": [96.91499444783689, 34.68139383763774]}}, {"type": "Feature", "properties": {"norad_id": 43245, "name": "BEIDOU-3 M9 (C29)", "group": "gnss", "lat": -52.693768784673836, "lon": -163.01504346637606, "alt_km": 21529.19659744205, "timestamp": "2025-12-02T06:27:53.257152+00:00", "meta": {"OBJECT_NAME": "BEIDOU-3 M9 (C29)", "OBJECT_ID": "2018-029A", "EPOCH": "2025-12-01T08:20:14.784576", "MEAN_MOTION": 1.86227904, "ECCENTRICITY": 0.00017985, "INCLINATION": 54.3765, "RA_OF_ASC_NODE": 306.8658, "ARG_OF_PERICENTER": 272.1738, "MEAN_ANOMALY": 87.7976, "EPHEMERIS_TYPE": 0, "CLASSIFICATION_TYPE": "U", "NORAD_CAT_ID": 43245, "ELEMENT_SET_NO": 999, "REV_AT_EPOCH": 5221, "BSTAR": 0, "MEAN_MOTION_DOT": -5.8e-07, "MEAN_MOTION_DDOT": 0}, "tle": {"line1": "1 43245U 18029A   25335.34739334 -.00000058  00000+0  00000+0 0  9994", "line2": "2 43245  54.3765 306.8658 0001798 272.1738  87.7976  1.86227904 52214"}}, "geometry": {"type": "Point", "coordinates": [-163.01504346637606, -52.693768784673836]}}, {"type": "Feature", "properties": {"norad_id": 43246, "name": "BEIDOU-3 M10 (C30)", "group": "gnss", "lat": -43.87961419499491, "lon": -96.73772499511105, "alt_km": 21527.40577821319, "timestamp": "2025-12-02T06:27:53.257165+00:00", "meta": {"OBJECT_NAME": "BEIDOU-3 M10 (C30)", "OBJECT_ID": "2018-029B", "EPOCH": "2025-11-29T03:14:13.986240", "MEAN_MOTION": 1.86228967, "ECCENTRICITY": 0.00039142, "INCLINATION": 54.3758, "RA_OF_ASC_NODE": 306.9698, "ARG_OF_PERICENTER": 358.6776, "MEAN_ANOMALY": 1.3207, "EPHEMERIS_TYPE": 0, "CLASSIFICATION_TYPE": "U", "NORAD_CAT_ID": 43246, "ELEMENT_SET_NO": 999, "REV_AT_EPOCH": 5215, "BSTAR": 0, "MEAN_MOTION_DOT": -4.6e-07, "MEAN_MOTION_DDOT": 0}, "tle": {"line1": "1 43246U 18029B   25333.13488410 -.00000046  00000+0  00000+0 0  9993", "line2": "2 43246  54.3758 306.9698 0003914 358.6776   1.3207  1.86228967 52158"}}, "geometry": {"type": "Point", "coordinates": [-96.73772499511105, -43.87961419499491]}}, {"type": "Feature", "properties": {"norad_id": 43286, "name": "IRNSS-1I", "group": "gnss", "lat": 15.729770059739282, "lon": -133.14044653940036, "alt_km": 35708.115519324936, "timestamp": "2025-12-02T06:27:53.257177+00:00", "meta": {"OBJECT_NAME": "IRNSS-1I", "OBJECT_ID": "2018-035A", "EPOCH": "2025-11-30T20:57:14.647680", "MEAN_MOTION": 1.00277145, "ECCENTRICITY": 0.00215478, "INCLINATION": 29.121, "RA_OF_ASC_NODE": 77.2845, "ARG_OF_PERICENTER": 181.4747, "MEAN_ANOMALY": 180.6764, "EPHEMERIS_TYPE": 0, "CLASSIFICATION_TYPE": "U", "NORAD_CAT_ID": 43286, "ELEMENT_SET_NO": 999, "REV_AT_EPOCH": 2809, "BSTAR": 0, "MEAN_MOTION_DOT": 9.8e-07, "MEAN_MOTION_DDOT": 0}, "tle": {"line1": "1 43286U 18035A   25334.87308620  .00000098  00000+0  00000+0 0  9996", "line2": "2 43286  29.1210  77.2845 0021547 181.4747 180.6764  1.00277145 28092"}}, "geometry": {"type": "Point", "coordinates": [-133.14044653940036, 15.729770059739282]}}, {"type": "Feature", "properties": {"norad_id": 43508, "name": "COSMOS 2527 (756)", "group": "gnss", "lat": -27.502247764566174, "lon": -85.78521648373892, "alt_km": 19112.361000298755, "timestamp": "2025-12-02T06:27:53.257189+00:00", "meta": {"OBJECT_NAME": "COSMOS 2527 (756)", "OBJECT_ID": "2018-053A", "EPOCH": "2025-11-28T17:02:34.696320", "MEAN_MOTION": 2.1310209, "ECCENTRICITY": 0.00085767, "INCLINATION": 65.4651, "RA_OF_ASC_NODE": 80.6007, "ARG_OF_PERICENTER": 223.0414, "MEAN_ANOMALY": 136.8979, "EPHEMERIS_TYPE": 0, "CLASSIFICATION_TYPE": "U", "NORAD_CAT_ID": 43508, "ELEMENT_SET_NO": 999, "REV_AT_EPOCH": 5800, "BSTAR": 0, "MEAN_MOTION_DOT": 1.2e-07, "MEAN_MOTION_DDOT": 0}, "tle": {"line1": "1 43508U 18053A   25332.71012380  .00000012  00000+0  00000+0 0  9995", "line2": "2 43508  65.4651  80.6007 0008576 223.0414 136.8979  2.13102090 58006"}}, "geometry": {"type": "Point", "coordinates": [-85.78521648373892, -27.502247764566174]}}, {"type": "Feature", "properties": {"norad_id": 43539, "name": "BEIDOU-2 IGSO-7 (C16)", "group": "gnss", "lat": 48.49520847951562, "lon": -67.22254753121068, "alt_km": 35983.66914263077, "timestamp": "2025-12-02T06:27:53.257200+00:00", "meta": {"OBJECT_NAME": "BEIDOU-2 IGSO-7 (C16)", "OBJECT_ID": "2018-057A", "EPOCH": "2025-12-01T10:54:56.772000", "MEAN_MOTION": 1.00260153, "ECCENTRICITY": 0.00924483, "INCLINATION": 55.1734, "RA_OF_ASC_NODE": 164.7711, "ARG_OF_PERICENTER": 235.1555, "MEAN_ANOMALY": 305.8956, "EPHEMERIS_TYPE": 0, "CLASSIFICATION_TYPE": "U", "NORAD_CAT_ID": 43539, "ELEMENT_SET_NO": 999, "REV_AT_EPOCH": 2714, "BSTAR": 0, "MEAN_MOTION_DOT": -1.9e-07, "MEAN_MOTION_DDOT": 0}, "tle": {"line1": "1 43539U 18057A   25335.45482375 -.00000019  00000+0  00000+0 0  9990", "line2": "2 43539  55.1734 164.7711 0092448 235.1555 305.8956  1.00260153 27149"}}, "geometry": {"type": "Point", "coordinates": [-67.22254753121068, 48.49520847951562]}}, {"type": "Feature", "properties": {"norad_id": 43564, "name": "GSAT0221 (GALILEO 25)", "group": "gnss", "lat": -1.8777559004664748, "lon": 168.31922336689976, "alt_km": 23225.0799951212, "timestamp": "2025-12-02T06:27:53.257214+00:00", "meta": {"OBJECT_NAME": "GSAT0221 (GALILEO 25)", "OBJECT_ID": "2018-060A", "EPOCH": "2025-12-01T09:15:23.303232", "MEAN_MOTION": 1.70475711, "ECCENTRICITY": 0.00066191, "INCLINATION": 57.2301, "RA_OF_ASC_NODE": 347.1247, "ARG_OF_PERICENTER": 279.777, "MEAN_ANOMALY": 80.1905, "EPHEMERIS_TYPE": 0, "CLASSIFICATION_TYPE": "U", "NORAD_CAT_ID": 43564, "ELEMENT_SET_NO": 999, "REV_AT_EPOCH": 4579, "BSTAR": 0, "MEAN_MOTION_DOT": -5.9e-07, "MEAN_MOTION_DDOT": 0}, "tle": {"line1": "1 43564U 18060A   25335.38568638 -.00000059  00000+0  00000+0 0  9995", "line2": "2 43564  57.2301 347.1247 0006619 279.7770  80.1905  1.70475711 45792"}}, "geometry": {"type": "Point", "coordinates": [168.31922336689976, -1.8777559004664748]}}, {"type": "Feature", "properties": {"norad_id": 43565, "name": "GSAT0222 (GALILEO 26)", "group": "gnss", "lat": 38.4541285563834, "lon": 17.877373764202204, "alt_km": 23232.962367675034, "timestamp": "2025-12-02T06:27:53.257226+00:00", "meta": {"OBJECT_NAME": "GSAT0222 (GALILEO 26)", "OBJECT_ID": "2018-060B", "EPOCH": "2025-11-29T06:12:28.687968", "MEAN_MOTION": 1.70475509, "ECCENTRICITY": 0.00061732, "INCLINATION": 57.2346, "RA_OF_ASC_NODE": 347.1853, "ARG_OF_PERICENTER": 259.4518, "MEAN_ANOMALY": 100.5223, "EPHEMERIS_TYPE": 0, "CLASSIFICATION_TYPE": "U", "NORAD_CAT_ID": 43565, "ELEMENT_SET_NO": 999, "REV_AT_EPOCH": 4580, "BSTAR": 0, "MEAN_MOTION_DOT": -5.5e-07, "MEAN_MOTION_DDOT": 0}, "tle": {"line1": "1 43565U 18060B   25333.25866537 -.00000055  00000+0  00000+0 0  9995", "line2": "2 43565  57.2346 347.1853 0006173 259.4518 100.5223  1.70475509 45802"}}, "geometry": {"type": "Point", "coordinates": [17.877373764202204, 38.4541285563834]}}]}